[{"OBJECT_NAME":"STARLINK-5931","OBJECT_ID":"2023-078U","EPOCH":"2026-03-09T22:24:23.485824","MEAN_MOTION":14.9832927,"ECCENTRICITY":0.00028752,"INCLINATION":70.0004,"RA_OF_ASC_NODE":343.9713,"ARG_OF_PERICENTER":273.751,"MEAN_ANOMALY":86.332,"EPHEMERIS_TYPE":0,"CLASSIFICATION_TYPE":"U","NORAD_CAT_ID":56785,"ELEMENT_SET_NO":999,"REV_AT_EPOCH":15340,"BSTAR":-2.6054243e-5,"MEAN_MOTION_DOT":-4.04e-6,"MEAN_MOTION_DDOT":0},{"OBJECT_NAME":"FENGYUN 1C DEB","OBJECT_ID":"1999-025UY","EPOCH":"2026-03-09T17:57:35.667936","MEAN_MOTION":14.7972234,"ECCENTRICITY":0.00936968,"INCLINATION":98.7622,"RA_OF_ASC_NODE":152.739,"ARG_OF_PERICENTER":348.8437,"MEAN_ANOMALY":135.9619,"EPHEMERIS_TYPE":0,"CLASSIFICATION_TYPE":"U","NORAD_CAT_ID":30191,"ELEMENT_SET_NO":999,"REV_AT_EPOCH":1561,"BSTAR":0.00058698709,"MEAN_MOTION_DOT":4.686e-5,"MEAN_MOTION_DDOT":0}]
